{
  "type": "FeatureCollection",
  "features": [
    {
      "type": "Feature",
      "properties": {
        "norad_id": 24946,
        "name": "IRIDIUM 33",
        "group": "iridium-33-debris",
        "lat": -65.21944221247206,
        "lon": -109.41819268338818,
        "alt_km": 781.9446694776889,
        "timestamp": "2025-12-25T20:42:39.072767+00:00",
        "meta_object_name": "IRIDIUM 33",
        "meta_object_id": "1997-051C",
        "meta_epoch": "2025-12-25T06:11:00.134016",
        "meta_mean_motion": 14.35045823,
        "meta_eccentricity": 0.00085083,
        "meta_inclination": 86.3857,
        "meta_ra_of_asc_node": 62.9667,
        "meta_arg_of_pericenter": 159.9968,
        "meta_mean_anomaly": 200.1564,
        "meta_ephemeris_type": 0,
        "meta_classification_type": "U",
        "meta_norad_cat_id": 24946,
        "meta_element_set_no": 999,
        "meta_rev_at_epoch": 48014,
        "meta_bstar": 0.0001152438,
        "meta_mean_motion_dot": 3.48e-06,
        "meta_mean_motion_ddot": 0,
        "tle_line1": "1 24946U 97051C   25359.25764044  .00000348  00000+0  11524-3 0  9993",
        "tle_line2": "2 24946  86.3857  62.9667 0008508 159.9968 200.1564 14.35045823480148"
      },
      "geometry": {
        "type": "Point",
        "coordinates": [
          -109.41819268338818,
          -65.21944221247206
        ]
      }
    },
    {
      "type": "Feature",
      "properties": {
        "norad_id": 33773,
        "name": "IRIDIUM 33 DEB",
        "group": "iridium-33-debris",
        "lat": -50.57366326654006,
        "lon": -120.58032991783045,
        "alt_km": 759.7064972304197,
        "timestamp": "2025-12-25T20:42:39.072793+00:00",
        "meta_object_name": "IRIDIUM 33 DEB",
        "meta_object_id": "1997-051L",
        "meta_epoch": "2025-12-25T03:00:26.345088",
        "meta_mean_motion": 14.43282119,
        "meta_eccentricity": 0.00132738,
        "meta_inclination": 86.3998,
        "meta_ra_of_asc_node": 55.3405,
        "meta_arg_of_pericenter": 110.8698,
        "meta_mean_anomaly": 249.3926,
        "meta_ephemeris_type": 0,
        "meta_classification_type": "U",
        "meta_norad_cat_id": 33773,
        "meta_element_set_no": 999,
        "meta_rev_at_epoch": 88526,
        "meta_bstar": 0.00029112934,
        "meta_mean_motion_dot": 1.001e-05,
        "meta_mean_motion_ddot": 0,
        "tle_line1": "1 33773U 97051L   25359.12530492  .00001001  00000+0  29113-3 0  9995",
        "tle_line2": "2 33773  86.3998  55.3405 0013273 110.8698 249.3926 14.43282119885268"
      },
      "geometry": {
        "type": "Point",
        "coordinates": [
          -120.58032991783045,
          -50.57366326654006
        ]
      }
    },
    {
      "type": "Feature",
      "properties": {
        "norad_id": 33775,
        "name": "IRIDIUM 33 DEB",
        "group": "iridium-33-debris",
        "lat": -49.760957705000855,
        "lon": -131.73854394625508,
        "alt_km": 765.0477817263618,
        "timestamp": "2025-12-25T20:42:39.072808+00:00",
        "meta_object_name": "IRIDIUM 33 DEB",
        "meta_object_id": "1997-051N",
        "meta_epoch": "2025-12-24T21:08:33.647136",
        "meta_mean_motion": 14.41493494,
        "meta_eccentricity": 0.0015301,
        "meta_inclination": 86.3624,
        "meta_ra_of_asc_node": 44.3695,
        "meta_arg_of_pericenter": 118.5758,
        "meta_mean_anomaly": 58.3115,
        "meta_ephemeris_type": 0,
        "meta_classification_type": "U",
        "meta_norad_cat_id": 33775,
        "meta_element_set_no": 999,
        "meta_rev_at_epoch": 88315,
        "meta_bstar": 0.00031635,
        "meta_mean_motion_dot": 1.048e-05,
        "meta_mean_motion_ddot": 0,
        "tle_line1": "1 33775U 97051N   25358.88094499  .00001048  00000+0  31635-3 0  9994",
        "tle_line2": "2 33775  86.3624  44.3695 0015301 118.5758  58.3115 14.41493494883153"
      },
      "geometry": {
        "type": "Point",
        "coordinates": [
          -131.73854394625508,
          -49.760957705000855
        ]
      }
    },
    {
      "type": "Feature",
      "properties": {
        "norad_id": 33776,
        "name": "IRIDIUM 33 DEB",
        "group": "iridium-33-debris",
        "lat": -53.18227591048881,
        "lon": 70.44458627834351,
        "alt_km": 781.7587703092577,
        "timestamp": "2025-12-25T20:42:39.072821+00:00",
        "meta_object_name": "IRIDIUM 33 DEB",
        "meta_object_id": "1997-051P",
        "meta_epoch": "2025-12-25T06:12:42.675264",
        "meta_mean_motion": 14.38256021,
        "meta_eccentricity": 0.00157359,
        "meta_inclination": 86.4031,
        "meta_ra_of_asc_node": 75.5184,
        "meta_arg_of_pericenter": 150.7265,
        "meta_mean_anomaly": 269.942,
        "meta_ephemeris_type": 0,
        "meta_classification_type": "U",
        "meta_norad_cat_id": 33776,
        "meta_element_set_no": 999,
        "meta_rev_at_epoch": 88262,
        "meta_bstar": 0.00026458687,
        "meta_mean_motion_dot": 8.25e-06,
        "meta_mean_motion_ddot": 0,
        "tle_line1": "1 33776U 97051P   25359.25882726  .00000825  00000+0  26459-3 0  9995",
        "tle_line2": "2 33776  86.4031  75.5184 0015735 150.7265 269.9420 14.38256021882627"
      },
      "geometry": {
        "type": "Point",
        "coordinates": [
          70.44458627834351,
          -53.18227591048881
        ]
      }
    },
    {
      "type": "Feature",
      "properties": {
        "norad_id": 33777,
        "name": "IRIDIUM 33 DEB",
        "group": "iridium-33-debris",
        "lat": -15.863876620496427,
        "lon": -149.4750016581587,
        "alt_km": 707.5034432386446,
        "timestamp": "2025-12-25T20:42:39.072832+00:00",
        "meta_object_name": "IRIDIUM 33 DEB",
        "meta_object_id": "1997-051Q",
        "meta_epoch": "2025-12-25T03:18:59.715360",
        "meta_mean_motion": 14.55696956,
        "meta_eccentricity": 0.00063174,
        "meta_inclination": 86.3773,
        "meta_ra_of_asc_node": 29.8087,
        "meta_arg_of_pericenter": 197.114,
        "meta_mean_anomaly": 162.9856,
        "meta_ephemeris_type": 0,
        "meta_classification_type": "U",
        "meta_norad_cat_id": 33777,
        "meta_element_set_no": 999,
        "meta_rev_at_epoch": 88714,
        "meta_bstar": 0.00084426608,
        "meta_mean_motion_dot": 3.71e-05,
        "meta_mean_motion_ddot": 0,
        "tle_line1": "1 33777U 97051Q   25359.13819115  .00003710  00000+0  84427-3 0  9990",
        "tle_line2": "2 33777  86.3773  29.8087 0006317 197.1140 162.9856 14.55696956887148"
      },
      "geometry": {
        "type": "Point",
        "coordinates": [
          -149.4750016581587,
          -15.863876620496427
        ]
      }
    },
    {
      "type": "Feature",
      "properties": {
        "norad_id": 33850,
        "name": "IRIDIUM 33 DEB",
        "group": "iridium-33-debris",
        "lat": -62.584852293866106,
        "lon": -148.37686480564994,
        "alt_km": 763.4399930003938,
        "timestamp": "2025-12-25T20:42:39.072844+00:00",
        "meta_object_name": "IRIDIUM 33 DEB",
        "meta_object_id": "1997-051T",
        "meta_epoch": "2025-12-25T03:13:46.983648",
        "meta_mean_motion": 14.4217692,
        "meta_eccentricity": 0.00132777,
        "meta_inclination": 86.3408,
        "meta_ra_of_asc_node": 24.8493,
        "meta_arg_of_pericenter": 124.2339,
        "meta_mean_anomaly": 299.1573,
        "meta_ephemeris_type": 0,
        "meta_classification_type": "U",
        "meta_norad_cat_id": 33850,
        "meta_element_set_no": 999,
        "meta_rev_at_epoch": 88331,
        "meta_bstar": 0.0004155285,
        "meta_mean_motion_dot": 1.388e-05,
        "meta_mean_motion_ddot": 0,
        "tle_line1": "1 33850U 97051T   25359.13457157  .00001388  00000+0  41553-3 0  9998",
        "tle_line2": "2 33850  86.3408  24.8493 0013277 124.2339 299.1573 14.42176920883319"
      },
      "geometry": {
        "type": "Point",
        "coordinates": [
          -148.37686480564994,
          -62.584852293866106
        ]
      }
    },
    {
      "type": "Feature",
      "properties": {
        "norad_id": 33853,
        "name": "IRIDIUM 33 DEB",
        "group": "iridium-33-debris",
        "lat": 33.238641961633874,
        "lon": -13.315895953057723,
        "alt_km": 1038.2177076728867,
        "timestamp": "2025-12-25T20:42:39.072856+00:00",
        "meta_object_name": "IRIDIUM 33 DEB",
        "meta_object_id": "1997-051W",
        "meta_epoch": "2025-12-24T22:19:16.041792",
        "meta_mean_motion": 13.99120379,
        "meta_eccentricity": 0.0207734,
        "meta_inclination": 86.0001,
        "meta_ra_of_asc_node": 344.4648,
        "meta_arg_of_pericenter": 198.227,
        "meta_mean_anomaly": 179.9108,
        "meta_ephemeris_type": 0,
        "meta_classification_type": "U",
        "meta_norad_cat_id": 33853,
        "meta_element_set_no": 999,
        "meta_rev_at_epoch": 85516,
        "meta_bstar": 0.0011909,
        "meta_mean_motion_dot": 2.092e-05,
        "meta_mean_motion_ddot": 0,
        "tle_line1": "1 33853U 97051W   25358.93004678  .00002092  00000+0  11909-2 0  9998",
        "tle_line2": "2 33853  86.0001 344.4648 0207734 198.2270 179.9108 13.99120379855168"
      },
      "geometry": {
        "type": "Point",
        "coordinates": [
          -13.315895953057723,
          33.238641961633874
        ]
      }
    }
  ]
}